STARLINK-1476           
1 45753U 20038Z   21191.58444944 -.00000808  00000-0 -35397-4 0  9992
2 45753  53.0553 302.1622 0001226 132.2065 227.9028 15.06394767 59780
STARLINK-1477           
1 45754U 20038AA  21191.78717717 -.00001086  00000-0 -54054-4 0  9996
2 45754  53.0566 301.2544 0001194 128.5422 231.5674 15.06392583 60770
STARLINK-1478           
1 45755U 20038AB  21191.80561341 -.00001085  00000-0 -53940-4 0  9992
2 45755  53.0572 301.1689 0001215 119.2844 240.8267 15.06393946 59803
STARLINK-1484           
1 45756U 20038AC  21191.80191692 -.00009286  00000-0 -60488-3 0  9996
2 45756  53.0553 301.1858 0001065 113.6257 246.4844 15.06427687 60928
STARLINK-1486           
1 45757U 20038AD  21191.62131140  .00000569  00000-0  57109-4 0  9999
2 45757  53.0569 301.9947 0001908 160.4095 199.6968 15.06390471 59776
STARLINK-1487           
1 45758U 20038AE  21191.74663571 -.00000806  00000-0 -35255-4 0  9995
2 45758  53.0568 301.4288 0001220 137.3484 222.7600 15.06389987 59794
STARLINK-1493           
1 45759U 20038AF  21191.79455070 -.00001167  00000-0 -59476-4 0  9996
2 45759  53.0561 301.2240 0001161 109.0576 251.0539 15.06394229 59809
STARLINK-1494           
1 45760U 20038AG  21191.79823700 -.00000984  00000-0 -47158-4 0  9997
2 45760  53.0573 301.1975 0001139 129.0364 231.0727 15.06393244 60737
STARLINK-1495           
1 45761U 20038AH  21191.82402862  .00000567  00000-0  56945-4 0  9993
2 45761  53.0557 301.0913 0001442 123.9945 236.1181 15.06397496 59827
STARLINK-1499           
1 45762U 20038AJ  21191.70240187 -.00000999  00000-0 -48192-4 0  9997
2 45762  53.0570 301.6307 0001067 127.1874 232.9212 15.06403909 59800
STARLINK-1501           
1 45763U 20038AK  21191.84519654  .00764029  00000-0  70293-2 0  9995
2 45763  53.0339 294.5276 0000859  28.9336 331.1726 15.64715931 60829
STARLINK-1502           
1 45764U 20038AL  21191.76138061 -.00000862  00000-0 -39010-4 0  9990
2 45764  53.0541 301.3719 0001229 119.0619 241.0493 15.06391560 59813
STARLINK-1508           
1 45765U 20038AM  21191.69777402 -.00000992  00000-0 -47736-4 0  9999
2 45765  53.0563 301.6575 0001265 113.0471 247.0652 15.06391649 59801
STARLINK-1509           
1 45766U 20038AN  21191.61761530 -.00004087  00000-0 -25568-3 0  9994
2 45766  53.0564 302.0052 0001660 113.2896 246.8268 15.06387649 59771
STARLINK-1511           
1 45767U 20038AP  21191.80929482 -.00001447  00000-0 -78311-4 0  9990
2 45767  53.0551 301.1536 0000655 117.8217 242.2839 15.06395967 59805
STARLINK-1521           
1 45768U 20038AQ  21191.79086602 -.00001021  00000-0 -49657-4 0  9996
2 45768  53.0556 301.2350 0001298 127.3125 232.7982 15.06392452 60737
STARLINK-1459           
1 45769U 20038AR  21191.81482852  .00001124  00000-0  94333-4 0  9990
2 45769  53.0555 321.1295 0001312 111.3943 248.7186 15.06396595 60638
STARLINK-1462           
1 45770U 20038AS  21191.55216825  .00000260  00000-0  36371-4 0  9996
2 45770  53.0552 282.3072 0001014 113.3612 246.7483 15.06393978 60047
STARLINK-1463           
1 45771U 20038AT  21191.74478053  .00000709  00000-0  66459-4 0  9999
2 45771  53.0548 281.4437 0000943 131.7178 228.3892 15.06402139 60072
STARLINK-1470           
1 45772U 20038AU  21191.73372891  .00000565  00000-0  56798-4 0  9997
2 45772  53.0554 281.4922 0000984 125.8626 234.2454 15.06401499 60085
STARLINK-1482           
1 45773U 20038AV  21191.66003478  .00001325  00000-0  10786-3 0  9993
2 45773  53.0549 281.8205 0001172 116.3552 243.7557 15.06384331 60074
STARLINK-1485           
1 45774U 20038AW  21191.76321742 -.00001142  00000-0 -57796-4 0  9994
2 45774  53.0555 281.3612 0001036 117.6194 242.4900 15.06386404 60086
STARLINK-1488           
1 45775U 20038AX  21191.76689320 -.00003887  00000-0 -24234-3 0  9992
2 45775  53.0543 281.3445 0000843 110.0242 250.0838 15.06385701 60099
STARLINK-1489           
1 45776U 20038AY  21191.70793382 -.00000604  00000-0 -21692-4 0  9991
2 45776  53.0555 281.6133 0001095 132.4322 227.6760 15.06396693 60082
STARLINK-1490           
1 45777U 20038AZ  21191.63789418  .00000574  00000-0  57398-4 0  9995
2 45777  53.0547 281.9247 0000909 110.7312 249.3774 15.06394029 60070
STARLINK-1491           
1 45778U 20038BA  21191.68580588  .00000756  00000-0  69657-4 0  9991
2 45778  53.0562 281.7102 0000921 130.7199 229.3870 15.06396125 60068
STARLINK-1492           
1 45779U 20038BB  21191.54943636 -.00000466  00000-0 -12429-4 0  9999
2 45779  53.0572 282.3186 0001115 106.3468 253.7644 15.06386346 60045
STARLINK-1496           
1 45780U 20038BC  21191.56048055  .00000583  00000-0  58053-4 0  9995
2 45780  53.0570 282.2663 0000939 110.2776 249.8314 15.06397786 60043
STARLINK-1497           
1 45781U 20038BD  21191.71899377  .00000640  00000-0  61878-4 0  9997
2 45781  53.0565 281.5612 0001107 110.3603 249.7505 15.06388513 60074
STARLINK-1498           
1 45782U 20038BE  21191.71162569  .00002726  00000-0  20195-3 0  9997
2 45782  53.0546 281.5906 0001879 123.7299 236.3870 15.06376956 60081
STARLINK-1505           
1 45783U 20038BF  21191.51626220 -.00000602  00000-0 -21522-4 0  9994
2 45783  53.0538 282.4682 0001251 114.3216 245.7904 15.06391542 60050
STARLINK-1510           
1 45784U 20038BG  21191.75584665 -.00001087  00000-0 -54095-4 0  9996
2 45784  53.0549 281.3953 0000949 112.2851 247.8239 15.06388084 60081
STARLINK-1512           
1 45785U 20038BH  21191.73741714  .00000557  00000-0  56305-4 0  9990
2 45785  53.0558 281.4806 0001004 109.4134 250.6964 15.06398331 60088
STARLINK-1513           
1 45786U 20038BJ  21191.65632763 -.00000837  00000-0 -37326-4 0  9990
2 45786  53.0556 281.8399 0001198 111.3964 248.7153 15.06392818 60076
STARLINK-1517           
1 45787U 20038BK  21191.66370112 -.00001193  00000-0 -61205-4 0  9998
2 45787  53.0549 281.8054 0000957 105.0586 255.0509 15.06393628 60075
SKYSAT-C14              
1 45788U 20038BL  21191.30500122  .00005233  00000-0  74503-4 0  9998
2 45788  52.9977 192.7439 0006890 133.6859 226.4724 15.58219512 61289
SKYSAT-C16              
1 45789U 20038BM  21191.83991985  .00005025  00000-0  71735-4 0  9991
2 45789  52.9981 189.6885 0008835 126.4039 233.7787 15.58242755 61360
SKYSAT-C15              
1 45790U 20038BN  21191.41349609  .00005289  00000-0  75306-4 0  9997
2 45790  52.9969 191.9683 0005541  98.2851 261.8788 15.58196018 61294
GAOFEN 9-03             
1 45794U 20039A   21191.83307189  .00001068  00000-0  47492-4 0  9991
2 45794  97.3604 311.0687 0012751   6.9615 157.1241 15.23598690 59158
ZHEDA PIXING 3A         
1 45795U 20039B   21191.81871565  .00001143  00000-0  48949-4 0  9996
2 45795  97.3612 311.3868 0013347 348.2526 162.7691 15.24734563 59161
HEAD-5                  
1 45796U 20039C   21191.83086155  .00001741  00000-0  71586-4 0  9999
2 45796  97.3598 311.6406 0013734 352.9212 167.3760 15.25425320 59189
RED-EYE 2 (MERLOT)      
1 45800U 98067RM  21191.57759224  .00003038  00000-0  53871-4 0  9994
2 45800  51.6399 220.3978 0001709  28.5491 331.5593 15.53713941 60283
BEIDOU-3 G3             
1 45807U 20040A   21191.90876505 -.00000344  00000-0  00000-0 0  9996
2 45807   2.2280 298.6250 0004472 348.7402  79.3634  1.00273377  4014
RED-EYE 3 (CABERNET)    
1 45809U 98067RN  21191.77086202  .00003002  00000-0  53310-4 0  9993
2 45809  51.6400 219.4390 0001822  19.2166 340.8893 15.53716757 59297
NAVSTAR 79 (USA 304)    
1 45854U 20041A   21191.36693338 -.00000028  00000-0  00000-0 0  9999
2 45854  55.2764  99.9517 0012058 159.1001 200.9722  2.00565552  7874
GAOFEN DUOMO (GFDM)     
1 45856U 20042A   21191.64408626  .00000078  00000-0  18423-4 0  9993
2 45856  97.9793 267.2233 0015849 145.7851 214.4388 14.76785421 54977
BY70-2                  
1 45857U 20042B   21191.67765897  .00001394  00000-0  20441-3 0  9997
2 45857  97.9832 267.1840 0012509 133.8000 226.4247 14.77099649 54977
SHIYAN 6 02 (SY-6 02)   
1 45859U 20043A   21191.95910007  .00000005  00000-0  12640-4 0  9997
2 45859  98.2006 202.4261 0093974  74.2530 286.9005 14.50102693 54233
APSTAR 6D               
1 45863U 20045A   21191.69809028 -.00000311  00000-0  00000-0 0  9999
2 45863   0.0302  89.0698 0002916  15.6150 209.4492  1.00268487  3783
DEMI                    
1 45916U 98067RP  21191.78120931  .00010915  00000-0  14149-3 0  9998
2 45916  51.6382 212.7757 0002542 333.2371  26.8490 15.59431004 56370
KOREASAT 116            
1 45920U 20048A   21191.87880869 -.00000355  00000-0  00000-0 0  9996
2 45920   0.0186  27.5900 0000848 105.0123 228.9849  1.00270916  3564
ZINYUAN-3               
1 45939U 20051A   21191.80948353  .00000809  00000-0  39317-4 0  9996
2 45939  97.4648 269.2820 0011889 166.6047 327.1319 15.21255701 53324
2020-051B               
1 45940U 20051B   21191.81363749  .00002965  00000-0  11547-3 0  9998
2 45940  97.4662 271.5612 0012917 119.0927  21.4088 15.26712622 53455
2020-051C               
1 45941U 20051C   21191.82467039  .00001419  00000-0  58102-4 0  9999
2 45941  97.4668 271.4575 0013804 119.6690  13.1796 15.25899008 53444
EXPRESS 103             
1 45985U 20053A   21187.67107219 -.00000270  00000-0  00000-0 0  9993
2 45985   0.0398 209.7812 0000260  51.0653   2.0809  1.00270715  3522
EXPRESS 80              
1 45986U 20053B   21188.02121844 -.00000125  00000-0  00000+0 0  9992
2 45986   0.0376 203.6888 0000824  76.4954  92.6424  1.00270402  3538
GAOFEN 9-04             
1 46025U 20054A   21191.82042101  .00001054  00000-0  47093-4 0  9997
2 46025  97.4381 267.0212 0015098 146.2519 352.7467 15.23471040 51559
Q-SAT                   
1 46026U 20054B   21191.76250402  .00001545  00000-0  64876-4 0  9999
2 46026  97.4375 267.3887 0017401 153.1938 358.5186 15.24850536 51583
STARLINK-1522           
1 46027U 20055A   21191.76968950  .00000194  00000-0  31907-4 0  9993
2 46027  53.0543 211.3291 0000392  62.4335 297.6694 15.06390472 52217
